{
  "type": "FeatureCollection",
  "features": [
    {
      "type": "Feature",
      "properties": {
        "norad_id": 27954,
        "name": "GALAXY 13 (HORIZONS-1)",
        "group": "intelsat",
        "lat": 0.1688586801430763,
        "lon": -104.76460450681645,
        "alt_km": 35776.53501682454,
        "timestamp": "2025-12-25T20:42:38.354662+00:00",
        "meta_object_name": "GALAXY 13 (HORIZONS-1)",
        "meta_object_id": "2003-044A",
        "meta_epoch": "2025-12-25T03:47:39.130656",
        "meta_mean_motion": 1.00271894,
        "meta_eccentricity": 0.00023178,
        "meta_inclination": 0.9689,
        "meta_ra_of_asc_node": 86.3079,
        "meta_arg_of_pericenter": 185.2951,
        "meta_mean_anomaly": 89.2017,
        "meta_ephemeris_type": 0,
        "meta_classification_type": "U",
        "meta_norad_cat_id": 27954,
        "meta_element_set_no": 999,
        "meta_rev_at_epoch": 4482,
        "meta_bstar": 0,
        "meta_mean_motion_dot": 1.54e-06,
        "meta_mean_motion_ddot": 0,
        "tle_line1": "1 27954U 03044A   25359.15809179  .00000154  00000+0  00000+0 0  9990",
        "tle_line2": "2 27954   0.9689  86.3079 0002317 185.2951  89.2017  1.00271894 44825"
      },
      "geometry": {
        "type": "Point",
        "coordinates": [
          -104.76460450681645,
          0.1688586801430763
        ]
      }
    },
    {
      "type": "Feature",
      "properties": {
        "norad_id": 28358,
        "name": "INTELSAT 10-02",
        "group": "intelsat",
        "lat": 0.006374202984131498,
        "lon": 44.324910676427685,
        "alt_km": 35787.26221079045,
        "timestamp": "2025-12-25T20:42:38.354674+00:00",
        "meta_object_name": "INTELSAT 10-02",
        "meta_object_id": "2004-022A",
        "meta_epoch": "2025-12-25T02:23:21.556320",
        "meta_mean_motion": 1.00270312,
        "meta_eccentricity": 0.00012209,
        "meta_inclination": 0.0162,
        "meta_ra_of_asc_node": 46.3363,
        "meta_arg_of_pericenter": 259.2593,
        "meta_mean_anomaly": 183.1536,
        "meta_ephemeris_type": 0,
        "meta_classification_type": "U",
        "meta_norad_cat_id": 28358,
        "meta_element_set_no": 999,
        "meta_rev_at_epoch": 7881,
        "meta_bstar": 0,
        "meta_mean_motion_dot": 1e-07,
        "meta_mean_motion_ddot": 0,
        "tle_line1": "1 28358U 04022A   25359.09955505  .00000010  00000+0  00000+0 0  9995",
        "tle_line2": "2 28358   0.0162  46.3363 0001220 259.2593 183.1536  1.00270312 78819"
      },
      "geometry": {
        "type": "Point",
        "coordinates": [
          44.324910676427685,
          0.006374202984131498
        ]
      }
    },
    {
      "type": "Feature",
      "properties": {
        "norad_id": 28626,
        "name": "XM-3 (RHYTHM)",
        "group": "intelsat",
        "lat": 0.07272152639641957,
        "lon": 97.19659068575208,
        "alt_km": 36162.442138124476,
        "timestamp": "2025-12-25T20:42:38.354686+00:00",
        "meta_object_name": "XM-3 (RHYTHM)",
        "meta_object_id": "2005-008A",
        "meta_epoch": "2025-12-25T03:09:38.893824",
        "meta_mean_motion": 0.98950171,
        "meta_eccentricity": 0.00021729,
        "meta_inclination": 0.2047,
        "meta_ra_of_asc_node": 82.2256,
        "meta_arg_of_pericenter": 273.6055,
        "meta_mean_anomaly": 200.8586,
        "meta_ephemeris_type": 0,
        "meta_classification_type": "U",
        "meta_norad_cat_id": 28626,
        "meta_element_set_no": 999,
        "meta_rev_at_epoch": 4087,
        "meta_bstar": 0,
        "meta_mean_motion_dot": 9.5e-07,
        "meta_mean_motion_ddot": 0,
        "tle_line1": "1 28626U 05008A   25359.13170016  .00000095  00000+0  00000+0 0  9992",
        "tle_line2": "2 28626   0.2047  82.2256 0002172 273.6055 200.8586  0.98950171 40872"
      },
      "geometry": {
        "type": "Point",
        "coordinates": [
          97.19659068575208,
          0.07272152639641957
        ]
      }
    },
    {
      "type": "Feature",
      "properties": {
        "norad_id": 28659,
        "name": "DIRECTV 8",
        "group": "intelsat",
        "lat": -0.03604993960830389,
        "lon": -73.76949070571712,
        "alt_km": 35773.18343023657,
        "timestamp": "2025-12-25T20:42:38.354698+00:00",
        "meta_object_name": "DIRECTV 8",
        "meta_object_id": "2005-019A",
        "meta_epoch": "2025-12-25T06:10:38.820000",
        "meta_mean_motion": 1.00271725,
        "meta_eccentricity": 0.00030486,
        "meta_inclination": 0.0176,
        "meta_ra_of_asc_node": 35.883,
        "meta_arg_of_pericenter": 248.0851,
        "meta_mean_anomaly": 143.6728,
        "meta_ephemeris_type": 0,
        "meta_classification_type": "U",
        "meta_norad_cat_id": 28659,
        "meta_element_set_no": 999,
        "meta_rev_at_epoch": 7532,
        "meta_bstar": 0,
        "meta_mean_motion_dot": 2.2e-07,
        "meta_mean_motion_ddot": 0,
        "tle_line1": "1 28659U 05019A   25359.25739375  .00000022  00000+0  00000+0 0  9992",
        "tle_line2": "2 28659   0.0176  35.8830 0003048 248.0851 143.6728  1.00271725 75329"
      },
      "geometry": {
        "type": "Point",
        "coordinates": [
          -73.76949070571712,
          -0.03604993960830389
        ]
      }
    },
    {
      "type": "Feature",
      "properties": {
        "norad_id": 28702,
        "name": "GALAXY 28 (G-28)",
        "group": "intelsat",
        "lat": -2.545231006021123,
        "lon": -36.46248607549322,
        "alt_km": 35692.77837460018,
        "timestamp": "2025-12-25T20:42:38.354710+00:00",
        "meta_object_name": "GALAXY 28 (G-28)",
        "meta_object_id": "2005-022A",
        "meta_epoch": "2025-12-25T06:15:34.001280",
        "meta_mean_motion": 1.00599998,
        "meta_eccentricity": 0.00035237,
        "meta_inclination": 2.8519,
        "meta_ra_of_asc_node": 81.1358,
        "meta_arg_of_pericenter": 159.6201,
        "meta_mean_anomaly": 224.7014,
        "meta_ephemeris_type": 0,
        "meta_classification_type": "U",
        "meta_norad_cat_id": 28702,
        "meta_element_set_no": 999,
        "meta_rev_at_epoch": 5023,
        "meta_bstar": 0,
        "meta_mean_motion_dot": -2.29e-06,
        "meta_mean_motion_ddot": 0,
        "tle_line1": "1 28702U 05022A   25359.26081020 -.00000229  00000+0  00000+0 0  9993",
        "tle_line2": "2 28702   2.8519  81.1358 0003523 159.6201 224.7014  1.00599998 50239"
      },
      "geometry": {
        "type": "Point",
        "coordinates": [
          -36.46248607549322,
          -2.545231006021123
        ]
      }
    },
    {
      "type": "Feature",
      "properties": {
        "norad_id": 29236,
        "name": "GALAXY 16 (G-16)",
        "group": "intelsat",
        "lat": -0.008959418404197976,
        "lon": -53.723684785459874,
        "alt_km": 35776.31935662984,
        "timestamp": "2025-12-25T20:42:38.354722+00:00",
        "meta_object_name": "GALAXY 16 (G-16)",
        "meta_object_id": "2006-023A",
        "meta_epoch": "2025-12-24T22:53:59.758368",
        "meta_mean_motion": 1.00271582,
        "meta_eccentricity": 0.0002662,
        "meta_inclination": 0.0298,
        "meta_ra_of_asc_node": 185.906,
        "meta_arg_of_pericenter": 91.2013,
        "meta_mean_anomaly": 61.1049,
        "meta_ephemeris_type": 0,
        "meta_classification_type": "U",
        "meta_norad_cat_id": 29236,
        "meta_element_set_no": 999,
        "meta_rev_at_epoch": 7122,
        "meta_bstar": 0,
        "meta_mean_motion_dot": -1.06e-06,
        "meta_mean_motion_ddot": 0,
        "tle_line1": "1 29236U 06023A   25358.95416387 -.00000106  00000+0  00000+0 0  9995",
        "tle_line2": "2 29236   0.0298 185.9060 0002662  91.2013  61.1049  1.00271582 71223"
      },
      "geometry": {
        "type": "Point",
        "coordinates": [
          -53.723684785459874,
          -0.008959418404197976
        ]
      }
    },
    {
      "type": "Feature",
      "properties": {
        "norad_id": 29494,
        "name": "DIRECTV 9S",
        "group": "intelsat",
        "lat": -1.3126697598734518,
        "lon": -55.93339385217277,
        "alt_km": 35774.73270310598,
        "timestamp": "2025-12-25T20:42:38.354734+00:00",
        "meta_object_name": "DIRECTV 9S",
        "meta_object_id": "2006-043A",
        "meta_epoch": "2025-12-25T06:13:14.477376",
        "meta_mean_motion": 1.00271728,
        "meta_eccentricity": 0.00030064,
        "meta_inclination": 1.9706,
        "meta_ra_of_asc_node": 83.0792,
        "meta_arg_of_pericenter": 196.1619,
        "meta_mean_anomaly": 166.8879,
        "meta_ephemeris_type": 0,
        "meta_classification_type": "U",
        "meta_norad_cat_id": 29494,
        "meta_element_set_no": 999,
        "meta_rev_at_epoch": 4964,
        "meta_bstar": 0,
        "meta_mean_motion_dot": -9.3e-07,
        "meta_mean_motion_ddot": 0,
        "tle_line1": "1 29494U 06043A   25359.25919534 -.00000093  00000+0  00000+0 0  9994",
        "tle_line2": "2 29494   1.9706  83.0792 0003006 196.1619 166.8879  1.00271728 49640"
      },
      "geometry": {
        "type": "Point",
        "coordinates": [
          -55.93339385217277,
          -1.3126697598734518
        ]
      }
    }
  ]
}